[{"OBJECT_NAME":"STARLINK-11139 [DTC]","OBJECT_ID":"2024-141E","EPOCH":"2026-03-09T11:24:27.730944","MEAN_MOTION":15.69708919,"ECCENTRICITY":0.00018639,"INCLINATION":53.1596,"RA_OF_ASC_NODE":87.0013,"ARG_OF_PERICENTER":48.1173,"MEAN_ANOMALY":312.0004,"EPHEMERIS_TYPE":0,"CLASSIFICATION_TYPE":"U","NORAD_CAT_ID":60402,"ELEMENT_SET_NO":999,"REV_AT_EPOCH":9171,"BSTAR":2.646576e-6,"MEAN_MOTION_DOT":-2.69e-6,"MEAN_MOTION_DDOT":0},{"OBJECT_NAME":"FLOCK 4BE-33","OBJECT_ID":"2024-149AL","EPOCH":"2026-03-09T17:20:04.915968","MEAN_MOTION":15.65897746,"ECCENTRICITY":0.00075386,"INCLINATION":97.3675,"RA_OF_ASC_NODE":153.2317,"ARG_OF_PERICENTER":245.686,"MEAN_ANOMALY":114.3613,"EPHEMERIS_TYPE":0,"CLASSIFICATION_TYPE":"U","NORAD_CAT_ID":60502,"ELEMENT_SET_NO":999,"REV_AT_EPOCH":8711,"BSTAR":0.0014774544,"MEAN_MOTION_DOT":0.00152703,"MEAN_MOTION_DDOT":0}]
